#aV2024  9  9  0  0  0.00000000     288 DD+AD WGS84 FIT  NGA
## 2331  86400.00000000   300.00000000 60562 0.0000000000000
+   31     2  3  4  5  6  7  8  9 10 11 12 13 14 15 16 17 18
+         19 20 21 22 23 24 25 26 27 28 29 30 31 32  0  0  0
+          0  0  0  0  0  0  0  0  0  0  0  0  0  0  0  0  0
+          0  0  0  0  0  0  0  0  0  0  0  0  0  0  0  0  0
+          0  0  0  0  0  0  0  0  0  0  0  0  0  0  0  0  0
++         2  2  2  2  2  2  2  2  2  2  2  2  2  2  2  2  2
++         2  2  2  2  2  2  2  2  2  2  2  2  2  2  0  0  0
++         0  0  0  0  0  0  0  0  0  0  0  0  0  0  0  0  0
++         0  0  0  0  0  0  0  0  0  0  0  0  0  0  0  0  0
++         0  0  0  0  0  0  0  0  0  0  0  0  0  0  0  0  0
%c cc cc ccc ccc cccc cccc cccc cccc ccccc ccccc ccccc ccccc
%c cc cc ccc ccc cccc cccc cccc cccc ccccc ccccc ccccc ccccc
%f  0.0000000  0.000000000  0.00000000000  0.000000000000000
%f  0.0000000  0.000000000  0.00000000000  0.000000000000000
%i    0    0    0    0      0      0      0      0         0
%i    0    0    0    0      0      0      0      0         0
/*      NGA, ST. LOUIS,MO.                                  
/*   EPHEMERIS COMPUTED FROM 2 DAYS OF DATA                 
/*   EPOCHA v9 SMOOTHER                                     
/*   G2296 IERS2010 SATIGS SATAPC                           
*  2024  9  9  8  5  0.00000000
P  2  18327.025811   6229.767794  18801.127368   -361.813956                    
V  2  10164.788906  20403.793538 -16781.383512      0.078955                    
P  3  19013.283113  -7221.933686  16853.992987    531.310588                    
V  3 -11582.353073  18419.457120  20859.944079      0.136567                    
P  4  26239.263913    347.146849  -4566.119547    440.275804                    
V  4   5404.107491   3241.428568  31066.690693      0.071759                    
P  5 -12126.896375  -8929.351336 -22060.174240   -185.994451                    
V  5  15042.957911 -23061.033134   1141.417125     -0.012567                    
P  6  -3740.707922 -24454.070304   9587.321850     43.103819                    
V  6   6428.342714  10377.029696  29274.628524     -0.257260                    
P  7  10839.611877 -11743.318911 -20612.584089    -40.097914                    
V  7  12299.487571  24638.612489  -7831.219826      0.047827                    
P  8  24907.434947   6764.727350  -7279.218524    346.223615                    
V  8  -9140.132546   1995.552635 -29457.087525      0.132707                    
P  9  21082.250333  -8291.952455 -14003.350551    348.946667                    
V  9  17404.110902   3421.023432  24276.786583      0.159561                    
P 10  -8604.861346  23043.610448   9780.182393   -119.524582                    
V 10  -8773.471639   8702.062077 -29169.607336     -0.120803                    
P 11 -12698.187442 -22852.032309  -4865.080402   -732.483870                    
V 11     55.444337  -6693.299429  31036.706976     -0.044803                    
P 12 -18791.355579   2715.310280  18274.186600   -536.710380                    
V 12  13932.223853 -19355.881708  16988.927643     -0.028266                    
P 13 -18966.433433 -13763.022721 -12954.284615    675.505654                    
V 13  15931.286100   2103.338382 -25782.808440      0.020373                    
P 14  11880.696411 -22887.049705   5892.780095    491.511612                    
V 14   7202.619266  -3955.382522 -30334.242538      0.085854                    
P 15 -25391.796155  -4077.689883  -7497.753037    202.205175                    
V 15   8639.293047  -3637.642973 -29149.532513      0.043800                    
P 16   8398.175873  13406.533823 -21613.763142   -185.871207                    
V 16 -17902.392600  19852.039447   5883.263793      0.102245                    
P 17   6382.274003 -14274.061977  21911.235222    632.073547                    
V 17  26400.112912   4515.654490  -4674.369056     -0.109723                    
P 18 -10231.790916  12398.282681 -21079.359072   -652.226798                    
V 18 -11309.606640 -24331.228055  -9026.702480     -0.023956                    
P 19  -3792.004371 -15628.239828  21057.542953    535.717335                    
V 19  26542.809690   4958.639478   7986.487016      0.049654                    
P 20  -5384.315207 -18614.704587 -18161.370181    370.823556                    
V 20  11354.262057 -20249.889784  17175.219286     -0.003889                    
P 21  19064.652961  12372.674396  14974.333234    102.093198                    
V 21   7772.903326  16160.364132 -22868.710353     -0.007109                    
P 22   6448.507041 -22200.610000  13750.889165    -60.041288                    
V 22  12318.030367 -11382.597791 -24612.006040     -0.038218                    
P 23 -16422.961207  20469.420888  -3189.665157    316.161717                    
V 23    344.104287  -4719.002782 -31992.130229      0.084524                    
P 24 -18903.171610  -8561.247437  16359.868639   -486.782977                    
V 24  -8863.183864 -19742.546825 -19626.734053      0.001212                    
P 25 -19179.458860  14631.927006  10474.694360    499.590176                    
V 25   5371.617654 -13192.579394  27637.883352      0.000736                    
P 26   -146.116724  21905.959468 -14911.599474     82.883893                    
V 26 -12186.566589  14733.328359  22374.863716     -0.083395                    
P 27  17308.679371  12855.113412 -16077.882709    -33.768109                    
V 27 -19775.967719   -203.518213 -21434.647591     -0.001905                    
P 28   2823.514996  23804.873248  11422.807856   -404.495395                    
V 28  -8542.383871 -11983.498667  27057.887089     -0.140874                    
P 29 -23435.838304   4192.192318 -11949.992953   -579.011198                    
V 29 -14465.499670  -4604.739850  26726.968332      0.024015                    
P 30   3263.736584 -20894.774764 -15753.661589   -324.672765                    
V 30  10855.118905  17543.148874 -21083.965925      0.070764                    
P 31  10625.999875  24111.019567   -450.629810   -224.913824                    
V 31  -2958.588927   1594.328875  31864.672543      0.004692                    
P 32  -3935.557239  14906.464480  21828.754801   -598.840484                    
V 32 -27079.697689  -2756.673074  -3228.352098      0.034853                    
EOF
